GOES 14                 
1 35491U 09033A   26094.19141847  .00000049  00000+0  00000+0 0  9994
2 35491   1.4992  83.9394 0001823 295.6803  65.2070  1.00111592  5849
FM-5                    
1 35493U 09034A   26093.94497961 -.00000202  00000+0  00000+0 0  9992
2 35493   0.0201 254.8145 0000175  18.3757 173.1090  1.00273030 45895
TERRESTAR-1             
1 35496U 09035A   26094.52121330 -.00000055  00000+0  00000+0 0  9991
2 35496   5.1234  48.8032 0002899 324.7404 255.9471  1.00273420 61392
ASIASAT 5               
1 35696U 09042A   26094.05356600 -.00000308  00000+0  00000+0 0  9990
2 35696   0.0123 206.9627 0001699 161.1062 304.1041  1.00271213 60962
JCSAT-12 (JCSAT-RA)     
1 35755U 09044A   26094.25600255  .00000000  00000+0  00000+0 0  9996
2 35755   0.0132 202.7706 0000873 160.2178  53.7868  1.00268494 60861
OPTUS D3                
1 35756U 09044B   26093.85064907 -.00000148  00000+0  00000+0 0  9994
2 35756   0.8654 270.0015 0003217 101.7046 282.8172  1.00272629 60823
NIMIQ 5                 
1 35873U 09050A   26094.23314004 -.00000257  00000+0  00000+0 0  9991
2 35873   0.0445  83.1771 0002920 295.0337 185.5675  1.00272565 60607
AMAZONAS 2              
1 35942U 09054A   26094.23548005 -.00000282  00000+0  00000+0 0  9990
2 35942   1.6231  83.9836 0003526 292.3487 200.2072  1.00271963 60442
COMSATBW-1              
1 35943U 09054B   26094.18867987  .00000024  00000+0  00000+0 0  9991
2 35943   0.0615  80.4032 0003844 309.2344 293.7853  1.00271952 60560
NSS-12                  
1 36032U 09058A   26094.18755319  .00000071  00000+0  00000+0 0  9992
2 36032   0.0730  61.1201 0005061 297.3560 318.5480  1.00271262 60175
THOR 6                  
1 36033U 09058B   26094.17602648 -.00000011  00000+0  00000+0 0  9993
2 36033   0.0102 213.8522 0002037 178.6208 222.5478  1.00271058 60265
INTELSAT 14 (IS-14)     
1 36097U 09064A   26094.22753240 -.00000274  00000+0  00000+0 0  9992
2 36097   0.0433  73.1355 0002558 308.7043 207.6211  1.00272903 59867
EUTELSAT 36B            
1 36101U 09065A   26094.24350380  .00000112  00000+0  00000+0 0  9999
2 36101   0.3052  78.9592 0005986 298.9146 312.8270  1.00273278 59962
INTELSAT 15 (IS-15)     
1 36106U 09067A   26094.22586333  .00000000  00000+0  00000+0 0  9999
2 36106   0.0189 222.0014 0002491 167.4493 329.5559  1.00269977 40482
WGS F3 (USA 211)        
1 36108U 09068A   26093.65137273  .00000063  00000+0  00000+0 0  9992
2 36108   0.4086  85.5983 0000608 346.7211 224.1285  1.00270885 45840
DIRECTV 12              
1 36131U 09075A   26094.01326582 -.00000105  00000+0  00000+0 0  9998
2 36131   0.0124 329.7374 0000464  71.5214  53.1228  1.00272211 45817
BEIDOU-2 G1             
1 36287U 10001A   26094.20410660 -.00000279  00000+0  00000+0 0  9995
2 36287   4.1211  60.6047 0004217 292.6054  53.2610  1.00270807 59424
